{"type": "FeatureCollection", "features": [ {"type": "Feature", "properties": {"norad_id": 62339, "name": "GPS BIII-7  (PRN 01)", "group": "gps-ops", "lat": -18.284918972259845, "lon": 175.2026431690434, "alt_km": 20209.656625055355, "timestamp": "2025-12-11T15:53:39.801417+00:00", "meta": {"OBJECT_NAME": "GPS BIII-7  (PRN 01)", "OBJECT_ID": "2024-242A", "EPOCH": "2025-12-10T14:03:42.090048", "MEAN_MOTION": 2.00567746, "ECCENTRICITY": 0.0012131, "INCLINATION": 54.9242, "RA_OF_ASC_NODE": 341.8267, "ARG_OF_PERICENTER": 344.331, "MEAN_ANOMALY": 161.0631, "EPHEMERIS_TYPE": 0, "CLASSIFICATION_TYPE": "U", "NORAD_CAT_ID": 62339, "ELEMENT_SET_NO": 999, "REV_AT_EPOCH": 747, "BSTAR": 0, "MEAN_MOTION_DOT": -9e-07, "MEAN_MOTION_DDOT": 0}, "tle": {"line1": "1 62339U 24242A   25344.58590382 -.00000090  00000+0  00000+0 0  9993", "line2": "2 62339  54.9242 341.8267 0012131 344.3310 161.0631  2.00567746  7471"}}, "geometry": {"type": "Point", "coordinates": [175.2026431690434, -18.284918972259845]}}, {"type": "Feature", "properties": {"norad_id": 64202, "name": "GPS BIII-8  (PRN 21)", "group": "gps-ops", "lat": 25.870693594395075, "lon": 58.464750409713695, "alt_km": 20178.174999003062, "timestamp": "2025-12-11T15:53:39.801429+00:00", "meta": {"OBJECT_NAME": "GPS BIII-8  (PRN 21)", "OBJECT_ID": "2025-116A", "EPOCH": "2025-12-11T02:51:45.968256", "MEAN_MOTION": 2.00558368, "ECCENTRICITY": 0.00053687, "INCLINATION": 55.1046, "RA_OF_ASC_NODE": 38.706, "ARG_OF_PERICENTER": 307.6723, "MEAN_ANOMALY": 52.3979, "EPHEMERIS_TYPE": 0, "CLASSIFICATION_TYPE": "U", "NORAD_CAT_ID": 64202, "ELEMENT_SET_NO": 999, "REV_AT_EPOCH": 409, "BSTAR": 0, "MEAN_MOTION_DOT": -9.4e-07, "MEAN_MOTION_DDOT": 0}, "tle": {"line1": "1 64202U 25116A   25345.11928204 -.00000094  00000+0  00000+0 0  9997", "line2": "2 64202  55.1046  38.7060 0005368 307.6723  52.3979  2.00558368  4096"}}, "geometry": {"type": "Point", "coordinates": [58.464750409713695, 25.870693594395075]}}]}